2026-023D               
1 67677U 26023D   26048.61197934  .00010330  00000+0  44707-3 0  9997
2 67677  96.6467 123.8861 0019208 196.8324 163.2280 15.22413338  1796
2026-023E               
1 67678U 26023E   26048.61129676  .00014859  00000+0  63947-3 0  9993
2 67678  96.6360 123.8863 0019037 196.1900 163.8733 15.22528227  1797
2026-023G               
1 67680U 26023G   26048.61049755  .00014471  00000+0  61982-3 0  9992
2 67680  96.6296 126.3803 0022579 187.4026 172.6883 15.22627365  1783
2026-023J               
1 67682U 26023J   26048.60999869  .00012224  00000+0  52310-3 0  9992
2 67682  96.6396 126.3952 0022806 183.5632 176.5448 15.22689136  1788
ISS OBJECT XZ           
1 67683U 98067XZ  26048.55996255  .00034002  00000+0  59633-3 0  9993
2 67683  51.6311 171.7382 0010438 120.3988 239.8034 15.50177657  1661
GXIBA-1                 
1 67684U 98067YA  26048.55474937  .00059962  00000+0  10040-2 0  9992
2 67684  51.6311 171.7048 0012006 113.2004 247.0252 15.51206196  1669
CORAL                   
1 67685U 98067YB  26048.55896067  .00038550  00000+0  66990-3 0  9991
2 67685  51.6309 171.7324 0012332 116.1515 244.0744 15.50353125  1662
ISS OBJECT YC           
1 67686U 98067YC  26048.55801584  .00042395  00000+0  73145-3 0  9994
2 67686  51.6320 171.7265 0007772  88.8855 271.3025 15.50561623  1663
LEOPARD                 
1 67687U 98067YD  26048.49491505  .00043637  00000+0  76005-3 0  9994
2 67687  51.6314 172.0549 0007844  91.1853 269.0035 15.50279822  1573
ISS OBJECT YE           
1 67688U 98067YE  26048.55837794  .00042152  00000+0  72976-3 0  9990
2 67688  51.6317 171.7280 0007735  90.1746 270.0129 15.50467375  1583
